{"type": "FeatureCollection", "features": [ {"type": "Feature", "properties": {"norad_id": 38779, "name": "GSAT-10 (GAGAN/PRN 128)", "group": "gnss", "lat": 0.01240184015594445, "lon": 85.56881385820535, "alt_km": 35778.65946409619, "timestamp": "2025-12-09T18:55:17.474779+00:00", "meta": {"OBJECT_NAME": "GSAT-10 (GAGAN/PRN 128)", "OBJECT_ID": "2012-051B", "EPOCH": "2025-12-09T08:49:57.427392", "MEAN_MOTION": 1.00273307, "ECCENTRICITY": 0.00021698, "INCLINATION": 0.0157, "RA_OF_ASC_NODE": 266.0566, "ARG_OF_PERICENTER": 219.6476, "MEAN_ANOMALY": 168.1336, "EPHEMERIS_TYPE": 0, "CLASSIFICATION_TYPE": "U", "NORAD_CAT_ID": 38779, "ELEMENT_SET_NO": 999, "REV_AT_EPOCH": 4819, "BSTAR": 0, "MEAN_MOTION_DOT": -1.63e-06, "MEAN_MOTION_DDOT": 0}, "tle": {"line1": "1 38779U 12051B   25343.36802578 -.00000163  00000+0  00000+0 0  9998", "line2": "2 38779   0.0157 266.0566 0002169 219.6476 168.1336  1.00273307 48196"}}, "geometry": {"type": "Point", "coordinates": [85.56881385820535, 0.01240184015594445]}}, {"type": "Feature", "properties": {"norad_id": 38833, "name": "GPS BIIF-3  (PRN 24)", "group": "gnss", "lat": -39.020728979625304, "lon": 114.55830190373997, "alt_km": 20380.828981590166, "timestamp": "2025-12-09T18:55:17.474791+00:00", "meta": {"OBJECT_NAME": "GPS BIIF-3  (PRN 24)", "OBJECT_ID": "2012-053A", "EPOCH": "2025-12-09T08:40:03.793728", "MEAN_MOTION": 2.00564926, "ECCENTRICITY": 0.01757344, "INCLINATION": 53.5568, "RA_OF_ASC_NODE": 151.3769, "ARG_OF_PERICENTER": 63.947, "MEAN_ANOMALY": 297.8481, "EPHEMERIS_TYPE": 0, "CLASSIFICATION_TYPE": "U", "NORAD_CAT_ID": 38833, "ELEMENT_SET_NO": 999, "REV_AT_EPOCH": 9563, "BSTAR": 0, "MEAN_MOTION_DOT": 6.3e-07, "MEAN_MOTION_DDOT": 0}, "tle": {"line1": "1 38833U 12053A   25343.36115502  .00000063  00000+0  00000+0 0  9993", "line2": "2 38833  53.5568 151.3769 0175734  63.9470 297.8481  2.00564926 95633"}}, "geometry": {"type": "Point", "coordinates": [114.55830190373997, -39.020728979625304]}}, {"type": "Feature", "properties": {"norad_id": 38857, "name": "GSAT0103 (GALILEO-FM3)", "group": "gnss", "lat": -35.865569490011346, "lon": -43.711777082439774, "alt_km": 23221.30624499967, "timestamp": "2025-12-09T18:55:17.474806+00:00", "meta": {"OBJECT_NAME": "GSAT0103 (GALILEO-FM3)", "OBJECT_ID": "2012-055A", "EPOCH": "2025-12-06T11:43:28.953984", "MEAN_MOTION": 1.7047325, "ECCENTRICITY": 0.00024686, "INCLINATION": 55.6879, "RA_OF_ASC_NODE": 106.8382, "ARG_OF_PERICENTER": 267.747, "MEAN_ANOMALY": 92.1776, "EPHEMERIS_TYPE": 0, "CLASSIFICATION_TYPE": "U", "NORAD_CAT_ID": 38857, "ELEMENT_SET_NO": 999, "REV_AT_EPOCH": 8172, "BSTAR": 0, "MEAN_MOTION_DOT": 7e-08, "MEAN_MOTION_DDOT": 0}, "tle": {"line1": "1 38857U 12055A   25340.48852956  .00000007  00000+0  00000+0 0  9990", "line2": "2 38857  55.6879 106.8382 0002468 267.7470  92.1776  1.70473250 81723"}}, "geometry": {"type": "Point", "coordinates": [-43.711777082439774, -35.865569490011346]}}, {"type": "Feature", "properties": {"norad_id": 38953, "name": "BEIDOU-2 G6 (C02)", "group": "gnss", "lat": 0.7835790289127089, "lon": 86.6810438938123, "alt_km": 35782.07259824974, "timestamp": "2025-12-09T18:55:17.474817+00:00", "meta": {"OBJECT_NAME": "BEIDOU-2 G6 (C02)", "OBJECT_ID": "2012-059A", "EPOCH": "2025-12-09T08:50:12.403104", "MEAN_MOTION": 1.00269731, "ECCENTRICITY": 0.00075215, "INCLINATION": 3.9402, "RA_OF_ASC_NODE": 75.5304, "ARG_OF_PERICENTER": 289.2206, "MEAN_ANOMALY": 290.1893, "EPHEMERIS_TYPE": 0, "CLASSIFICATION_TYPE": "U", "NORAD_CAT_ID": 38953, "ELEMENT_SET_NO": 999, "REV_AT_EPOCH": 4800, "BSTAR": 0, "MEAN_MOTION_DOT": -1.74e-06, "MEAN_MOTION_DDOT": 0}, "tle": {"line1": "1 38953U 12059A   25343.36819911 -.00000174  00000+0  00000+0 0  9991", "line2": "2 38953   3.9402  75.5304 0007521 289.2206 290.1893  1.00269731 48009"}}, "geometry": {"type": "Point", "coordinates": [86.6810438938123, 0.7835790289127089]}}, {"type": "Feature", "properties": {"norad_id": 38977, "name": "LUCH 5B (SDCM/PRN 125)", "group": "gnss", "lat": -9.157036365758602, "lon": -13.32111161031956, "alt_km": 35794.014084183815, "timestamp": "2025-12-09T18:55:17.474829+00:00", "meta": {"OBJECT_NAME": "LUCH 5B (SDCM/PRN 125)", "OBJECT_ID": "2012-061A", "EPOCH": "2025-12-08T10:06:12.360096", "MEAN_MOTION": 1.00272234, "ECCENTRICITY": 0.00072728, "INCLINATION": 10.0716, "RA_OF_ASC_NODE": 51.747, "ARG_OF_PERICENTER": 191.5954, "MEAN_ANOMALY": 329.292, "EPHEMERIS_TYPE": 0, "CLASSIFICATION_TYPE": "U", "NORAD_CAT_ID": 38977, "ELEMENT_SET_NO": 999, "REV_AT_EPOCH": 4769, "BSTAR": 0, "MEAN_MOTION_DOT": -1.39e-06, "MEAN_MOTION_DDOT": 0}, "tle": {"line1": "1 38977U 12061A   25342.42097639 -.00000139  00000+0  00000+0 0  9992", "line2": "2 38977  10.0716  51.7470 0007272 191.5954 329.2920  1.00272234 47691"}}, "geometry": {"type": "Point", "coordinates": [-13.32111161031956, -9.157036365758602]}}, {"type": "Feature", "properties": {"norad_id": 39155, "name": "COSMOS 2485 (747)", "group": "gnss", "lat": -7.156386171963934, "lon": 76.66671465623284, "alt_km": 19165.423127482034, "timestamp": "2025-12-09T18:55:17.474840+00:00", "meta": {"OBJECT_NAME": "COSMOS 2485 (747)", "OBJECT_ID": "2013-019A", "EPOCH": "2025-12-09T07:54:23.489856", "MEAN_MOTION": 2.13102865, "ECCENTRICITY": 0.00245518, "INCLINATION": 65.3117, "RA_OF_ASC_NODE": 79.9821, "ARG_OF_PERICENTER": 229.1035, "MEAN_ANOMALY": 130.7003, "EPHEMERIS_TYPE": 0, "CLASSIFICATION_TYPE": "U", "NORAD_CAT_ID": 39155, "ELEMENT_SET_NO": 999, "REV_AT_EPOCH": 9823, "BSTAR": 0, "MEAN_MOTION_DOT": -1.3e-07, "MEAN_MOTION_DDOT": 0}, "tle": {"line1": "1 39155U 13019A   25343.32943854 -.00000013  00000+0  00000+0 0  9995", "line2": "2 39155  65.3117  79.9821 0024551 229.1035 130.7003  2.13102865 98237"}}, "geometry": {"type": "Point", "coordinates": [76.66671465623284, -7.156386171963934]}}, {"type": "Feature", "properties": {"norad_id": 39166, "name": "GPS BIIF-4  (PRN 27)", "group": "gnss", "lat": 37.23271883146598, "lon": -50.734679188502206, "alt_km": 19812.30781775875, "timestamp": "2025-12-09T18:55:17.474851+00:00", "meta": {"OBJECT_NAME": "GPS BIIF-4  (PRN 27)", "OBJECT_ID": "2013-023A", "EPOCH": "2025-12-09T05:24:11.844576", "MEAN_MOTION": 2.00565099, "ECCENTRICITY": 0.01376828, "INCLINATION": 54.6551, "RA_OF_ASC_NODE": 276.7112, "ARG_OF_PERICENTER": 48.5762, "MEAN_ANOMALY": 312.6137, "EPHEMERIS_TYPE": 0, "CLASSIFICATION_TYPE": "U", "NORAD_CAT_ID": 39166, "ELEMENT_SET_NO": 999, "REV_AT_EPOCH": 9207, "BSTAR": 0, "MEAN_MOTION_DOT": -4.9e-07, "MEAN_MOTION_DDOT": 0}, "tle": {"line1": "1 39166U 13023A   25343.22513709 -.00000049  00000+0  00000+0 0  9992", "line2": "2 39166  54.6551 276.7112 0137682  48.5762 312.6137  2.00565099 92075"}}, "geometry": {"type": "Point", "coordinates": [-50.734679188502206, 37.23271883146598]}}, {"type": "Feature", "properties": {"norad_id": 39199, "name": "IRNSS-1A", "group": "gnss", "lat": -4.961976347556804, "lon": 59.562704875647874, "alt_km": 35873.22853815315, "timestamp": "2025-12-09T18:55:17.474865+00:00", "meta": {"OBJECT_NAME": "IRNSS-1A", "OBJECT_ID": "2013-034A", "EPOCH": "2025-12-02T19:49:26.431104", "MEAN_MOTION": 1.00279053, "ECCENTRICITY": 0.00216608, "INCLINATION": 35.2852, "RA_OF_ASC_NODE": 66.6964, "ARG_OF_PERICENTER": 185.4059, "MEAN_ANOMALY": 172.3398, "EPHEMERIS_TYPE": 0, "CLASSIFICATION_TYPE": "U", "NORAD_CAT_ID": 39199, "ELEMENT_SET_NO": 999, "REV_AT_EPOCH": 4539, "BSTAR": 0, "MEAN_MOTION_DOT": 6.5e-07, "MEAN_MOTION_DDOT": 0}, "tle": {"line1": "1 39199U 13034A   25336.82600036  .00000065  00000+0  00000+0 0  9995", "line2": "2 39199  35.2852  66.6964 0021660 185.4059 172.3398  1.00279053 45393"}}, "geometry": {"type": "Point", "coordinates": [59.562704875647874, -4.961976347556804]}}, {"type": "Feature", "properties": {"norad_id": 39533, "name": "GPS BIIF-5  (PRN 30)", "group": "gnss", "lat": 38.217806026581236, "lon": -167.48170829090023, "alt_km": 20386.186665442732, "timestamp": "2025-12-09T18:55:17.474877+00:00", "meta": {"OBJECT_NAME": "GPS BIIF-5  (PRN 30)", "OBJECT_ID": "2014-008A", "EPOCH": "2025-12-09T05:15:48.383136", "MEAN_MOTION": 2.00574211, "ECCENTRICITY": 0.0079126, "INCLINATION": 53.6307, "RA_OF_ASC_NODE": 157.0682, "ARG_OF_PERICENTER": 226.4462, "MEAN_ANOMALY": 132.9001, "EPHEMERIS_TYPE": 0, "CLASSIFICATION_TYPE": "U", "NORAD_CAT_ID": 39533, "ELEMENT_SET_NO": 999, "REV_AT_EPOCH": 8587, "BSTAR": 0, "MEAN_MOTION_DOT": 6.2e-07, "MEAN_MOTION_DDOT": 0}, "tle": {"line1": "1 39533U 14008A   25343.21930999  .00000062  00000+0  00000+0 0  9991", "line2": "2 39533  53.6307 157.0682 0079126 226.4462 132.9001  2.00574211 85875"}}, "geometry": {"type": "Point", "coordinates": [-167.48170829090023, 38.217806026581236]}}, {"type": "Feature", "properties": {"norad_id": 39617, "name": "ASTRA 5B (EGNOS/PRN 123)", "group": "gnss", "lat": 0.006858507436028788, "lon": 26.121644310761294, "alt_km": 35796.88538968902, "timestamp": "2025-12-09T18:55:17.474888+00:00", "meta": {"OBJECT_NAME": "ASTRA 5B (EGNOS/PRN 123)", "OBJECT_ID": "2014-011B", "EPOCH": "2025-12-09T13:41:07.035648", "MEAN_MOTION": 1.00270577, "ECCENTRICITY": 0.00045071, "INCLINATION": 0.0557, "RA_OF_ASC_NODE": 30.975, "ARG_OF_PERICENTER": 231.8027, "MEAN_ANOMALY": 44.5462, "EPHEMERIS_TYPE": 0, "CLASSIFICATION_TYPE": "U", "NORAD_CAT_ID": 39617, "ELEMENT_SET_NO": 999, "REV_AT_EPOCH": 4276, "BSTAR": 0, "MEAN_MOTION_DOT": 1.39e-06, "MEAN_MOTION_DDOT": 0}, "tle": {"line1": "1 39617U 14011B   25343.57022032  .00000139  00000+0  00000+0 0  9992", "line2": "2 39617   0.0557  30.9750 0004507 231.8027  44.5462  1.00270577 42761"}}, "geometry": {"type": "Point", "coordinates": [26.121644310761294, 0.006858507436028788]}}]}